{"fetched_at":"2026-07-14T17:40:28.416Z","source":"https://celestrak.org/NORAD/elements/gp.php?GROUP=spire&FORMAT=JSON","constellation":"spire","records":[{"OBJECT_NAME":"LEMUR-1","OBJECT_ID":"2014-033AL","EPOCH":"2026-07-13T21:42:03.832128","CLASSIFICATION_TYPE":"U","MEAN_MOTION":14.85334693,"ECCENTRICITY":0.0047876,"INCLINATION":97.7906,"RA_OF_ASC_NODE":344.1214,"ARG_OF_PERICENTER":352.2056,"MEAN_ANOMALY":7.841,"EPHEMERIS_TYPE":0,"NORAD_CAT_ID":40044,"ELEMENT_SET_NO":999,"REV_AT_EPOCH":64943,"BSTAR":0.000097231,"MEAN_MOTION_DOT":0.00000797,"MEAN_MOTION_DDOT":0},{"OBJECT_NAME":"LEMUR-2-GREENBERG","OBJECT_ID":"2017-042N","EPOCH":"2026-07-14T01:36:51.314112","CLASSIFICATION_TYPE":"U","MEAN_MOTION":15.32129917,"ECCENTRICITY":0.000719,"INCLINATION":97.3821,"RA_OF_ASC_NODE":15.585,"ARG_OF_PERICENTER":263.7777,"MEAN_ANOMALY":96.2646,"EPHEMERIS_TYPE":0,"NORAD_CAT_ID":42837,"ELEMENT_SET_NO":999,"REV_AT_EPOCH":49250,"BSTAR":0.00031565,"MEAN_MOTION_DOT":0.00009723,"MEAN_MOTION_DDOT":0},{"OBJECT_NAME":"LEMUR-2-ANDIS","OBJECT_ID":"2017-042P","EPOCH":"2026-07-13T23:13:28.061760","CLASSIFICATION_TYPE":"U","MEAN_MOTION":15.35893253,"ECCENTRICITY":0.0007167,"INCLINATION":97.3674,"RA_OF_ASC_NODE":15.7663,"ARG_OF_PERICENTER":263.0855,"MEAN_ANOMALY":96.9574,"EPHEMERIS_TYPE":0,"NORAD_CAT_ID":42838,"ELEMENT_SET_NO":999,"REV_AT_EPOCH":49256,"BSTAR":0.00037818,"MEAN_MOTION_DOT":0.00013147,"MEAN_MOTION_DDOT":0},{"OBJECT_NAME":"LEMUR-2-MONSON","OBJECT_ID":"2017-042Q","EPOCH":"2026-07-13T19:22:56.061984","CLASSIFICATION_TYPE":"U","MEAN_MOTION":15.28729745,"ECCENTRICITY":0.0005239,"INCLINATION":97.4086,"RA_OF_ASC_NODE":15.2572,"ARG_OF_PERICENTER":251.8262,"MEAN_ANOMALY":108.2408,"EPHEMERIS_TYPE":0,"NORAD_CAT_ID":42839,"ELEMENT_SET_NO":999,"REV_AT_EPOCH":49223,"BSTAR":0.00028219,"MEAN_MOTION_DOT":0.0000781,"MEAN_MOTION_DDOT":0},{"OBJECT_NAME":"LEMUR-2-FURIAUS","OBJECT_ID":"2017-042R","EPOCH":"2026-07-12T10:41:36.677760","CLASSIFICATION_TYPE":"U","MEAN_MOTION":15.31072029,"ECCENTRICITY":0.00062398,"INCLINATION":97.3775,"RA_OF_ASC_NODE":11.8672,"ARG_OF_PERICENTER":340.6601,"MEAN_ANOMALY":19.4403,"EPHEMERIS_TYPE":0,"NORAD_CAT_ID":42840,"ELEMENT_SET_NO":999,"REV_AT_EPOCH":49207,"BSTAR":0.00035675373,"MEAN_MOTION_DOT":0.00010642,"MEAN_MOTION_DDOT":0},{"OBJECT_NAME":"LEMUR-2-PETERG","OBJECT_ID":"2017-042S","EPOCH":"2026-07-13T23:13:41.947104","CLASSIFICATION_TYPE":"U","MEAN_MOTION":15.35000836,"ECCENTRICITY":0.0003225,"INCLINATION":97.3987,"RA_OF_ASC_NODE":20.0635,"ARG_OF_PERICENTER":225.2776,"MEAN_ANOMALY":134.8205,"EPHEMERIS_TYPE":0,"NORAD_CAT_ID":42841,"ELEMENT_SET_NO":999,"REV_AT_EPOCH":49254,"BSTAR":0.00034182,"MEAN_MOTION_DOT":0.00011532,"MEAN_MOTION_DDOT":0},{"OBJECT_NAME":"LEMUR-2-DEMBITZ","OBJECT_ID":"2017-042T","EPOCH":"2026-07-14T00:48:41.260032","CLASSIFICATION_TYPE":"U","MEAN_MOTION":15.31088712,"ECCENTRICITY":0.0005022,"INCLINATION":97.3822,"RA_OF_ASC_NODE":16.4895,"ARG_OF_PERICENTER":279.7285,"MEAN_ANOMALY":80.3388,"EPHEMERIS_TYPE":0,"NORAD_CAT_ID":42842,"ELEMENT_SET_NO":999,"REV_AT_EPOCH":49245,"BSTAR":0.00033333,"MEAN_MOTION_DOT":0.0000994,"MEAN_MOTION_DDOT":0},{"OBJECT_NAME":"LEMUR-2-ZACHARY","OBJECT_ID":"2017-042W","EPOCH":"2026-07-14T02:03:08.921088","CLASSIFICATION_TYPE":"U","MEAN_MOTION":15.52645142,"ECCENTRICITY":0.00025,"INCLINATION":97.3571,"RA_OF_ASC_NODE":27.3393,"ARG_OF_PERICENTER":255.8073,"MEAN_ANOMALY":104.2902,"EPHEMERIS_TYPE":0,"NORAD_CAT_ID":42845,"ELEMENT_SET_NO":999,"REV_AT_EPOCH":49337,"BSTAR":0.00052258,"MEAN_MOTION_DOT":0.00032159,"MEAN_MOTION_DDOT":0},{"OBJECT_NAME":"LEMUR-2-AMANDA-SVANTE","OBJECT_ID":"2021-034B","EPOCH":"2026-07-14T03:32:50.927424","CLASSIFICATION_TYPE":"U","MEAN_MOTION":15.35919585,"ECCENTRICITY":0.0004547,"INCLINATION":97.5756,"RA_OF_ASC_NODE":274.1748,"ARG_OF_PERICENTER":145.2085,"MEAN_ANOMALY":214.9456,"EPHEMERIS_TYPE":0,"NORAD_CAT_ID":48269,"ELEMENT_SET_NO":999,"REV_AT_EPOCH":28519,"BSTAR":0.0005906,"MEAN_MOTION_DOT":0.00020602,"MEAN_MOTION_DDOT":0},{"OBJECT_NAME":"LEMUR-2-SPECIAL-K","OBJECT_ID":"2021-034F","EPOCH":"2026-07-14T04:32:59.620416","CLASSIFICATION_TYPE":"U","MEAN_MOTION":15.74373593,"ECCENTRICITY":0.0006229,"INCLINATION":97.5645,"RA_OF_ASC_NODE":284.1935,"ARG_OF_PERICENTER":216.1059,"MEAN_ANOMALY":143.9785,"EPHEMERIS_TYPE":0,"NORAD_CAT_ID":48273,"ELEMENT_SET_NO":999,"REV_AT_EPOCH":28592,"BSTAR":0.0012453,"MEAN_MOTION_DOT":0.0018327,"MEAN_MOTION_DDOT":0},{"OBJECT_NAME":"LEMUR-2-EMBRIONOVIS","OBJECT_ID":"2023-084AQ","EPOCH":"2026-07-13T22:39:20.545920","CLASSIFICATION_TYPE":"U","MEAN_MOTION":15.38209211,"ECCENTRICITY":0.0008216,"INCLINATION":97.6318,"RA_OF_ASC_NODE":340.1875,"ARG_OF_PERICENTER":211.0081,"MEAN_ANOMALY":149.0679,"EPHEMERIS_TYPE":0,"NORAD_CAT_ID":56970,"ELEMENT_SET_NO":999,"REV_AT_EPOCH":17179,"BSTAR":0.00023099,"MEAN_MOTION_DOT":0.00008615,"MEAN_MOTION_DDOT":0},{"OBJECT_NAME":"LEMUR-2-DEVERILL-M-T","OBJECT_ID":"2023-100F","EPOCH":"2026-07-14T03:02:56.310432","CLASSIFICATION_TYPE":"U","MEAN_MOTION":15.41060007,"ECCENTRICITY":0.0004704,"INCLINATION":99.4457,"RA_OF_ASC_NODE":241.6936,"ARG_OF_PERICENTER":301.5857,"MEAN_ANOMALY":58.4923,"EPHEMERIS_TYPE":0,"NORAD_CAT_ID":57391,"ELEMENT_SET_NO":999,"REV_AT_EPOCH":16539,"BSTAR":0.00041261,"MEAN_MOTION_DOT":0.00016951,"MEAN_MOTION_DDOT":0},{"OBJECT_NAME":"LEMUR-2-BASS","OBJECT_ID":"2023-174D","EPOCH":"2026-07-14T04:17:28.540320","CLASSIFICATION_TYPE":"U","MEAN_MOTION":15.43973523,"ECCENTRICITY":0.0007743,"INCLINATION":97.3851,"RA_OF_ASC_NODE":280.2837,"ARG_OF_PERICENTER":81.4518,"MEAN_ANOMALY":278.7607,"EPHEMERIS_TYPE":0,"NORAD_CAT_ID":58259,"ELEMENT_SET_NO":999,"REV_AT_EPOCH":14952,"BSTAR":0.00024342,"MEAN_MOTION_DOT":0.00011009,"MEAN_MOTION_DDOT":0},{"OBJECT_NAME":"LEMUR-2-JK0903EM1407","OBJECT_ID":"2023-174CJ","EPOCH":"2026-07-13T18:22:50.556288","CLASSIFICATION_TYPE":"U","MEAN_MOTION":15.53017919,"ECCENTRICITY":0.0003751,"INCLINATION":97.3927,"RA_OF_ASC_NODE":286.0103,"ARG_OF_PERICENTER":38.661,"MEAN_ANOMALY":321.491,"EPHEMERIS_TYPE":0,"NORAD_CAT_ID":58336,"ELEMENT_SET_NO":999,"REV_AT_EPOCH":14985,"BSTAR":0.00026895,"MEAN_MOTION_DOT":0.00016696,"MEAN_MOTION_DDOT":0},{"OBJECT_NAME":"LEMUR-2-MJR092620","OBJECT_ID":"2023-174CN","EPOCH":"2026-07-14T05:23:55.705056","CLASSIFICATION_TYPE":"U","MEAN_MOTION":15.4584129,"ECCENTRICITY":0.0005385,"INCLINATION":97.3983,"RA_OF_ASC_NODE":285.7696,"ARG_OF_PERICENTER":33.6493,"MEAN_ANOMALY":326.5097,"EPHEMERIS_TYPE":0,"NORAD_CAT_ID":58340,"ELEMENT_SET_NO":999,"REV_AT_EPOCH":14982,"BSTAR":0.0002502,"MEAN_MOTION_DOT":0.00012057,"MEAN_MOTION_DDOT":0},{"OBJECT_NAME":"LEMUR-2-NIMBUS2000","OBJECT_ID":"2024-022A","EPOCH":"2026-07-14T02:23:39.238080","CLASSIFICATION_TYPE":"U","MEAN_MOTION":15.41087584,"ECCENTRICITY":0.0008856,"INCLINATION":97.4081,"RA_OF_ASC_NODE":45.4558,"ARG_OF_PERICENTER":32.3719,"MEAN_ANOMALY":327.8069,"EPHEMERIS_TYPE":0,"NORAD_CAT_ID":58899,"ELEMENT_SET_NO":999,"REV_AT_EPOCH":13641,"BSTAR":0.00033421,"MEAN_MOTION_DOT":0.0001376,"MEAN_MOTION_DDOT":0}]}
